[{"OBJECT_NAME":"STARLINK-1716","OBJECT_ID":"2020-073C","EPOCH":"2026-03-10T00:00:02.999808","MEAN_MOTION":15.64601667,"ECCENTRICITY":0.00063571,"INCLINATION":53.0437,"RA_OF_ASC_NODE":199.6239,"ARG_OF_PERICENTER":339.4372,"MEAN_ANOMALY":32.4573,"EPHEMERIS_TYPE":0,"CLASSIFICATION_TYPE":"U","NORAD_CAT_ID":46672,"ELEMENT_SET_NO":999,"REV_AT_EPOCH":594,"BSTAR":1.2024739e-5,"MEAN_MOTION_DOT":6.3e-6,"MEAN_MOTION_DDOT":0},{"OBJECT_NAME":"CZ-2C R\/B","OBJECT_ID":"2004-012C","EPOCH":"2026-03-09T17:41:22.317504","MEAN_MOTION":15.64506189,"ECCENTRICITY":0.00129222,"INCLINATION":97.7227,"RA_OF_ASC_NODE":134.0339,"ARG_OF_PERICENTER":309.1452,"MEAN_ANOMALY":50.8657,"EPHEMERIS_TYPE":0,"CLASSIFICATION_TYPE":"U","NORAD_CAT_ID":28222,"ELEMENT_SET_NO":999,"REV_AT_EPOCH":20428,"BSTAR":0.00056669008,"MEAN_MOTION_DOT":0.00054864,"MEAN_MOTION_DDOT":0}]
